start=new Date('2021-10-07T00:00:00.000Z').valueOf();
sats=[{"APOAPSIS":"548.023","CENTER_NAME":"EARTH","GP_ID":"186422688","MEAN_MOTION_DDOT":"0.0000000000000","EPHEMERIS_TYPE":"0","OBJECT_NAME":"STARLINK-1160","COUNTRY_CODE":"US","CLASSIFICATION_TYPE":"U","BSTAR":"0.00001004500000","ELEMENT_SET_NO":"999","EPOCH":"2021-10-06T12:48:33.922944","RA_OF_ASC_NODE":"317.3468","SEMIMAJOR_AXIS":"6925.355","INCLINATION":"53.0537","PERIAPSIS":"546.418","PERIOD":"95.592","OBJECT_TYPE":"PAYLOAD","SITE":"AFETR","TLE_LINE2":"2 45082  53.0537 317.3468 0001159  96.5531 263.5590 15.06397836 93292","MEAN_MOTION":"15.06397836","TIME_SYSTEM":"UTC","ECCENTRICITY":"0.00011590","DECAY_DATE":null,"RCS_SIZE":"LARGE","LAUNCH_DATE":"2020-01-29","TLE_LINE1":"1 45082U 20006AQ  21279.53372596 -.00000132  00000-0  10045-4 0  9999","REV_AT_EPOCH":"9329","MEAN_ANOMALY":"263.5590","MEAN_ELEMENT_THEORY":"SGP4","FILE":"3148521","MEAN_MOTION_DOT":"-0.00000132","ARG_OF_PERICENTER":"96.5531","NORAD_CAT_ID":"45082","REF_FRAME":"TEME","OBJECT_ID":"2020-006AQ"},{"PERIOD":"95.593","SITE":"AFETR","OBJECT_TYPE":"PAYLOAD","TLE_LINE2":"2 45083  53.0557 337.2026 0001166  90.7887 269.3236 15.06389824 93024","MEAN_MOTION":"15.06389824","PERIAPSIS":"546.437","DECAY_DATE":null,"TIME_SYSTEM":"UTC","ECCENTRICITY":"0.00011660","RCS_SIZE":"LARGE","LAUNCH_DATE":"2020-01-29","TLE_LINE1":"1 45083U 20006AR  21279.56506868  .00001804  00000-0  14003-3 0  9997","MEAN_MOTION_DOT":"0.00001804","ARG_OF_PERICENTER":"90.7887","NORAD_CAT_ID":"45083","REF_FRAME":"TEME","OBJECT_ID":"2020-006AR","REV_AT_EPOCH":"9302","MEAN_ELEMENT_THEORY":"SGP4","MEAN_ANOMALY":"269.3236","FILE":"3148521","APOAPSIS":"548.052","GP_ID":"186422937","CENTER_NAME":"EARTH","COUNTRY_CODE":"US","MEAN_MOTION_DDOT":"0.0000000000000","EPHEMERIS_TYPE":"0","OBJECT_NAME":"STARLINK-1190","CLASSIFICATION_TYPE":"U","BSTAR":"0.00014003000000","EPOCH":"2021-10-06T13:33:41.933952","RA_OF_ASC_NODE":"337.2026","INCLINATION":"53.0557","SEMIMAJOR_AXIS":"6925.380","ELEMENT_SET_NO":"999"},{"TLE_LINE2":"2 45084  53.0546 297.5776 0001288  87.6160 272.4976 15.06388983 93578","MEAN_MOTION":"15.06388983","OBJECT_TYPE":"PAYLOAD","SITE":"AFETR","PERIOD":"95.593","PERIAPSIS":"546.355","DECAY_DATE":null,"TIME_SYSTEM":"UTC","ECCENTRICITY":"0.00012880","TLE_LINE1":"1 45084U 20006AS  21279.48028137  .00001206  00000-0  99869-4 0  9997","LAUNCH_DATE":"2020-01-29","RCS_SIZE":"LARGE","OBJECT_ID":"2020-006AS","NORAD_CAT_ID":"45084","REF_FRAME":"TEME","MEAN_MOTION_DOT":"0.00001206","ARG_OF_PERICENTER":"87.6160","FILE":"3148521","MEAN_ELEMENT_THEORY":"SGP4","MEAN_ANOMALY":"272.4976","REV_AT_EPOCH":"9357","GP_ID":"186423189","CENTER_NAME":"EARTH","APOAPSIS":"548.139","COUNTRY_CODE":"US","EPHEMERIS_TYPE":"0","OBJECT_NAME":"STARLINK-1173","MEAN_MOTION_DDOT":"0.0000000000000","BSTAR":"0.00009986900000","CLASSIFICATION_TYPE":"U","SEMIMAJOR_AXIS":"6925.382","INCLINATION":"53.0546","EPOCH":"2021-10-06T11:31:36.310368","RA_OF_ASC_NODE":"297.5776","ELEMENT_SET_NO":"999"},{"BSTAR":"0.00001112600000","CLASSIFICATION_TYPE":"U","SEMIMAJOR_AXIS":"6925.357","INCLINATION":"53.0543","EPOCH":"2021-10-06T09:50:45.212064","RA_OF_ASC_NODE":"297.8841","ELEMENT_SET_NO":"999","APOAPSIS":"548.006","GP_ID":"186362388","CENTER_NAME":"EARTH","COUNTRY_CODE":"US","MEAN_MOTION_DDOT":"0.0000000000000","OBJECT_NAME":"STARLINK-1179","EPHEMERIS_TYPE":"0","LAUNCH_DATE":"2020-01-29","TLE_LINE1":"1 45085U 20006AT  21279.41024551 -.00000116  00000-0  11126-4 0  9997","RCS_SIZE":"LARGE","REF_FRAME":"TEME","NORAD_CAT_ID":"45085","OBJECT_ID":"2020-006AT","MEAN_MOTION_DOT":"-0.00000116","ARG_OF_PERICENTER":"82.5188","FILE":"3147912","REV_AT_EPOCH":"9356","MEAN_ELEMENT_THEORY":"SGP4","MEAN_ANOMALY":"277.5930","MEAN_MOTION":"15.06397403","TLE_LINE2":"2 45085  53.0543 297.8841 0001133  82.5188 277.5930 15.06397403 93567","PERIOD":"95.592","OBJECT_TYPE":"PAYLOAD","SITE":"AFETR","PERIAPSIS":"546.437","DECAY_DATE":null,"ECCENTRICITY":"0.00011330","TIME_SYSTEM":"UTC"},{"BSTAR":"0.00020420000000","CLASSIFICATION_TYPE":"U","EPOCH":"2021-10-06T12:32:36.469248","RA_OF_ASC_NODE":"295.5638","SEMIMAJOR_AXIS":"6923.629","INCLINATION":"53.0023","ELEMENT_SET_NO":"999","CENTER_NAME":"EARTH","GP_ID":"186422189","APOAPSIS":"546.095","COUNTRY_CODE":"US","EPHEMERIS_TYPE":"0","OBJECT_NAME":"STARLINK-1181","MEAN_MOTION_DDOT":"0.0000000000000","RCS_SIZE":"LARGE","TLE_LINE1":"1 45086U 20006AU  21279.52264432  .00002807  00000-0  20420-3 0  9998","LAUNCH_DATE":"2020-01-29","MEAN_MOTION_DOT":"0.00002807","ARG_OF_PERICENTER":"73.2059","OBJECT_ID":"2020-006AU","REF_FRAME":"TEME","NORAD_CAT_ID":"45086","MEAN_ELEMENT_THEORY":"SGP4","MEAN_ANOMALY":"286.9025","REV_AT_EPOCH":"9350","FILE":"3148521","OBJECT_TYPE":"PAYLOAD","SITE":"AFETR","PERIOD":"95.557","MEAN_MOTION":"15.06961309","TLE_LINE2":"2 45086  53.0023 295.5638 0000869  73.2059 286.9025 15.06961309 93504","PERIAPSIS":"544.892","DECAY_DATE":null,"TIME_SYSTEM":"UTC","ECCENTRICITY":"0.00008690"},{"FILE":"3148521","REV_AT_EPOCH":"9357","MEAN_ELEMENT_THEORY":"SGP4","MEAN_ANOMALY":"278.1872","NORAD_CAT_ID":"45087","REF_FRAME":"TEME","OBJECT_ID":"2020-006AV","ARG_OF_PERICENTER":"81.9215","MEAN_MOTION_DOT":"-0.00000137","LAUNCH_DATE":"2020-01-29","TLE_LINE1":"1 45087U 20006AV  21279.46185499 -.00000137  00000-0  96851-5 0  9995","RCS_SIZE":"LARGE","ECCENTRICITY":"0.00008630","TIME_SYSTEM":"UTC","DECAY_DATE":null,"PERIAPSIS":"546.645","TLE_LINE2":"2 45087  53.0544 297.6544 0000863  81.9215 278.1872 15.06390411 93576","MEAN_MOTION":"15.06390411","PERIOD":"95.593","SITE":"AFETR","OBJECT_TYPE":"PAYLOAD","ELEMENT_SET_NO":"999","INCLINATION":"53.0544","SEMIMAJOR_AXIS":"6925.378","RA_OF_ASC_NODE":"297.6544","EPOCH":"2021-10-06T11:05:04.271136","CLASSIFICATION_TYPE":"U","BSTAR":"0.00000968510000","MEAN_MOTION_DDOT":"0.0000000000000","EPHEMERIS_TYPE":"0","OBJECT_NAME":"STARLINK-1185","COUNTRY_CODE":"US","APOAPSIS":"547.841","GP_ID":"186422439","CENTER_NAME":"EARTH"},{"EPOCH":"2021-10-06T10:01:22.893312","RA_OF_ASC_NODE":"297.8679","SEMIMAJOR_AXIS":"6925.443","INCLINATION":"53.0547","ELEMENT_SET_NO":"999","CLASSIFICATION_TYPE":"U","BSTAR":"0.00035393000000","COUNTRY_CODE":"US","OBJECT_NAME":"STARLINK-1183","EPHEMERIS_TYPE":"0","MEAN_MOTION_DDOT":"0.0000000000000","GP_ID":"186361639","CENTER_NAME":"EARTH","APOAPSIS":"548.453","ARG_OF_PERICENTER":"80.8756","MEAN_MOTION_DOT":"0.00004990","OBJECT_ID":"2020-006AW","NORAD_CAT_ID":"45088","REF_FRAME":"TEME","MEAN_ANOMALY":"279.2420","MEAN_ELEMENT_THEORY":"SGP4","REV_AT_EPOCH":"9356","FILE":"3147912","RCS_SIZE":"LARGE","TLE_LINE1":"1 45088U 20006AW  21279.41762608  .00004990  00000-0  35393-3 0  9996","LAUNCH_DATE":"2020-01-29","DECAY_DATE":null,"ECCENTRICITY":"0.00016530","TIME_SYSTEM":"UTC","SITE":"AFETR","OBJECT_TYPE":"PAYLOAD","PERIOD":"95.594","MEAN_MOTION":"15.06369047","TLE_LINE2":"2 45088  53.0547 297.8679 0001653  80.8756 279.2420 15.06369047 93568","PERIAPSIS":"546.164"},{"REV_AT_EPOCH":"9357","MEAN_ANOMALY":"261.9447","MEAN_ELEMENT_THEORY":"SGP4","FILE":"3147912","MEAN_MOTION_DOT":"-0.00000739","ARG_OF_PERICENTER":"98.1652","REF_FRAME":"TEME","NORAD_CAT_ID":"45089","OBJECT_ID":"2020-006AX","RCS_SIZE":"LARGE","LAUNCH_DATE":"2020-01-29","TLE_LINE1":"1 45089U 20006AX  21279.42130841 -.00000739  00000-0 -30768-4 0  9997","TIME_SYSTEM":"UTC","ECCENTRICITY":"0.00009730","DECAY_DATE":null,"PERIAPSIS":"546.557","PERIOD":"95.592","SITE":"AFETR","OBJECT_TYPE":"PAYLOAD","TLE_LINE2":"2 45089  53.0547 297.8515 0000973  98.1652 261.9447 15.06394496 93573","MEAN_MOTION":"15.06394496","ELEMENT_SET_NO":"999","RA_OF_ASC_NODE":"297.8515","EPOCH":"2021-10-06T10:06:41.046624","INCLINATION":"53.0547","SEMIMAJOR_AXIS":"6925.365","BSTAR":"-0.00003076800000","CLASSIFICATION_TYPE":"U","MEAN_MOTION_DDOT":"0.0000000000000","EPHEMERIS_TYPE":"0","OBJECT_NAME":"STARLINK-1136","COUNTRY_CODE":"US","APOAPSIS":"547.904","CENTER_NAME":"EARTH","GP_ID":"186361889"},{"PERIAPSIS":"546.355","TLE_LINE2":"2 45090  53.0535 297.3290 0001196  75.2002 284.9119 15.06409942 93585","MEAN_MOTION":"15.06409942","PERIOD":"95.592","SITE":"AFETR","OBJECT_TYPE":"PAYLOAD","ECCENTRICITY":"0.00011960","TIME_SYSTEM":"UTC","DECAY_DATE":null,"LAUNCH_DATE":"2020-01-29","TLE_LINE1":"1 45090U 20006AY  21279.53555894  .00003618  00000-0  26161-3 0  9998","RCS_SIZE":"LARGE","FILE":"3148521","REV_AT_EPOCH":"9358","MEAN_ELEMENT_THEORY":"SGP4","MEAN_ANOMALY":"284.9119","REF_FRAME":"TEME","NORAD_CAT_ID":"45090","OBJECT_ID":"2020-006AY","MEAN_MOTION_DOT":"0.00003618","ARG_OF_PERICENTER":"75.2002","APOAPSIS":"548.011","CENTER_NAME":"EARTH","GP_ID":"186422689","MEAN_MOTION_DDOT":"0.0000000000000","EPHEMERIS_TYPE":"0","OBJECT_NAME":"STARLINK-1176","COUNTRY_CODE":"US","CLASSIFICATION_TYPE":"U","BSTAR":"0.00026161000000","ELEMENT_SET_NO":"999","INCLINATION":"53.0535","SEMIMAJOR_AXIS":"6925.318","RA_OF_ASC_NODE":"297.3290","EPOCH":"2021-10-06T12:51:12.292416"},{"ELEMENT_SET_NO":"999","EPOCH":"2021-10-06T13:49:36.420672","RA_OF_ASC_NODE":"297.1516","INCLINATION":"53.0548","SEMIMAJOR_AXIS":"6925.362","CLASSIFICATION_TYPE":"U","BSTAR":"0.00009233500000","MEAN_MOTION_DDOT":"0.0000000000000","OBJECT_NAME":"STARLINK-1137","EPHEMERIS_TYPE":"0","COUNTRY_CODE":"US","APOAPSIS":"548.136","CENTER_NAME":"EARTH","GP_ID":"186422938","REV_AT_EPOCH":"9358","MEAN_ELEMENT_THEORY":"SGP4","MEAN_ANOMALY":"287.6583","FILE":"3148521","MEAN_MOTION_DOT":"0.00001094","ARG_OF_PERICENTER":"72.4550","NORAD_CAT_ID":"45092","REF_FRAME":"TEME","OBJECT_ID":"2020-006BA","RCS_SIZE":"LARGE","LAUNCH_DATE":"2020-01-29","TLE_LINE1":"1 45092U 20006BA  21279.57611598  .00001094  00000-0  92335-4 0  9991","TIME_SYSTEM":"UTC","ECCENTRICITY":"0.00013130","DECAY_DATE":null,"PERIAPSIS":"546.317","PERIOD":"95.592","SITE":"AFETR","OBJECT_TYPE":"PAYLOAD","TLE_LINE2":"2 45092  53.0548 297.1516 0001313  72.4550 287.6583 15.06395689 93585","MEAN_MOTION":"15.06395689"}];
